satname,norad_id,inclination_deg,eccentricity,mean_motion_rev_per_day,perigee_km,apogee_km,l1,l2
STARLINK-1404,45686,53.1603,0.0001091,15.38387344,450.1325730759245,451.622664065696,1 45686U 20035AF  26099.77716138  .00059928  00000+0  15579-2 0  9996,2 45686  53.1603 264.5029 0001091 347.1800  12.9176 15.38387344323742
STARLINK-1413,45689,53.1586,0.0001395,15.30225257,474.18362551346127,476.0956897009337,1 45689U 20035AJ  26098.87758860  .00008292  00000+0  29156-3 0  9992,2 45689  53.1586 269.3582 0001395  80.9951 279.1208 15.30225257323512
STARLINK-1417,45693,53.0522,0.0003148,15.142201,521.1746986373319,525.5198731437276,1 45693U 20035AN  26099.90152476  .00028063  00000+0  15287-2 0  9990,2 45693  53.0522 272.6691 0003148 336.2565  23.8282 15.14220100323622
STARLINK-1420,45695,53.047,0.0005138,15.60521117,382.6752695744717,389.6262516772904,1 45695U 20035AQ  26100.00002315  .00053414  00000+0  63770-3 0  9991,2 45695  53.0470 230.6336 0005138 290.5909  37.5032 15.60521117  5941
STARLINK-1422,45696,53.1581,9.33e-05,15.30358902,474.1012842578775,475.3800312288131,1 45696U 20035AR  26098.75417911  .00015256  00000+0  52359-3 0  9995,2 45696  53.1581 269.9309 0000933  87.9008 272.2100 15.30358902323570
STARLINK-1351,45697,53.0481,0.000562,15.58557117,388.0274776917022,395.6369230729315,1 45697U 20035AS  26099.56260143  .00034722  00000+0  44987-3 0  9996,2 45697  53.0481 232.2921 0005620 297.3189  62.7251 15.58557117324172
STARLINK-1400,45700,53.0461,0.000508,15.56713474,393.7344819959817,400.6182003506128,1 45700U 20035AV  26099.82803964  .00092089  00000+0  12580-2 0  9997,2 45700  53.0461 232.7802 0005080 242.5769 117.4726 15.56713474324188
STARLINK-1403,45701,53.1561,0.0001968,15.29463172,476.066815371395,478.7651610275516,1 45701U 20035AW  26099.83685313  .00019556  00000+0  68598-3 0  9994,2 45701  53.1561 252.0136 0001968  92.8121 267.3105 15.29463172323918
STARLINK-1407,45703,53.0303,0.0003234,15.65950118,368.32510394719975,372.69012728457983,1 45703U 20035AY  26099.44908717  .00045900  00000+0  44447-3 0  9998,2 45703  53.0303 165.1356 0003234 242.4841 117.5845 15.65950118325102
STARLINK-1411,45706,53.0408,0.0005049,15.69786436,356.10619174632484,362.90986569632787,1 45706U 20035BB  26100.00002315  .00123201  00000+0  10029-2 0  9994,2 45706  53.0408 187.6092 0005049 334.8921 179.0850 15.69786436  5915
STARLINK-1423,45710,53.0447,0.0006549,15.59347573,385.1119886617025,393.9762974228588,1 45710U 20035BF  26100.00002315  .00052193  00000+0  65160-3 0  9997,2 45710  53.0447 230.4378 0006549 268.7066  74.4110 15.59347573  5942
STARLINK-1433,45711,53.0443,0.000602,15.61697503,378.6833702742597,386.82348234753863,1 45711U 20035BG  26100.00002315  .00057713  00000+0  65760-3 0  9997,2 45711  53.0443 228.9993 0006020 264.8444 178.5119 15.61697503  5898
STARLINK-1434,45712,53.0525,0.0002495,15.29828689,474.6137733612368,478.03414938096194,1 45712U 20035BH  26098.78413746  .00051782  00000+0  17682-2 0  9992,2 45712  53.0525 240.3398 0002495 238.3069 121.7687 15.29828689323997
STARLINK-1465,45731,53.0484,0.0005723,15.55325193,397.3276793059049,405.08731701850047,1 45731U 20038B   26100.00002315  .00058821  00000+0  85177-3 0  9997,2 45731  53.0484  72.3552 0005723  52.6348 331.6178 15.55325193  5930
STARLINK-1471,45735,53.047,0.0001712,15.50769642,413.31480841119355,415.64059968586025,1 45735U 20038F   26099.98748861  .00025232  00000+0  43718-3 0  9993,2 45735  53.0470 351.8771 0001712  53.3017 306.8149 15.50769642322381
STARLINK-1480,45741,53.0517,0.0002838,15.57368015,393.35553050448834,397.20012075951763,1 45741U 20038M   26099.82174413  .00096516  00000+0  12861-2 0  9996,2 45741  53.0517  67.2878 0002838 114.3266 245.8042 15.57368015321312
STARLINK-1500,45744,53.0373,0.0003268,15.36561619,454.0524966814164,458.51947554514027,1 45744U 20038Q   26099.00603540  .00025918  00000+0  72387-3 0  9995,2 45744  53.0373  50.3565 0003268  38.6192 321.5043 15.36561619321477
STARLINK-1504,45746,53.0238,8.73e-05,15.55485336,400.15038820645896,401.3339805120477,1 45746U 20038S   26099.87304325  .00027167  00000+0  39661-3 0  9997,2 45746  53.0238 351.4940 0000873  83.4861 276.6248 15.55485336322369
STARLINK-1506,45747,53.077,0.0003524,15.27004661,482.35391960065226,487.19089815202824,1 45747U 20038T   26099.88900637  .00008551  00000+0  33094-3 0  9997,2 45747  53.0770  57.9629 0003524  18.3799 341.7326 15.27004661321453
STARLINK-1464,45751,53.0496,0.0003618,15.47995685,420.12953976061726,425.05054584879053,1 45751U 20038X   26099.60352930  .00070163  00000+0  13170-2 0  9999,2 45751  53.0496  57.2451 0003618  60.2624 299.8743 15.47995685321437
STARLINK-1477,45754,53.0483,0.0003147,15.16098161,515.4765466429772,519.8167528721333,1 45754U 20038AA  26099.89846358  .00027952  00000+0  14442-2 0  9996,2 45754  53.0483  70.9290 0003147  78.3014 281.8332 15.16098161321264
STARLINK-1478,45755,53.049,0.0003596,15.60583629,383.53774931120915,388.4024951535175,1 45755U 20038AB  26099.55569975  .00088876  00000+0  10501-2 0  9991,2 45755  53.0490  48.0247 0003596  48.5984 311.5337 15.60583629321548
STARLINK-1493,45759,53.0503,0.0004825,15.55918313,396.21431744279744,402.754722209429,1 45759U 20038AF  26099.92145713  .00091495  00000+0  12874-2 0  9992,2 45759  53.0503  53.9864 0004825 112.3422 247.8100 15.55918313321499
STARLINK-1494,45760,53.0475,0.0005085,15.81725916,322.15082987253754,328.9684893753756,1 45760U 20038AG  26100.00002315  .00141422  00000+0  68048-3 0  9997,2 45760  53.0475 355.1207 0005085 130.3388 297.4300 15.81725916  5921
STARLINK-1502,45764,53.0487,0.0006196,15.52362603,405.62424483920495,414.03589363140145,1 45764U 20038AL  26099.90259138  .00083625  00000+0  13410-2 0  9996,2 45764  53.0487  56.3629 0006196 101.4881 258.6824 15.52362603321476
STARLINK-1470,45772,53.0467,0.0003429,15.30958041,470.6033909572743,475.30186822524774,1 45772U 20038AU  26099.51994059  .00052491  00000+0  17305-2 0  9994,2 45772  53.0467  30.9252 0003429 111.4259 248.7106 15.30958041321790
STARLINK-1482,45773,53.1605,0.0003757,15.33056679,464.12718363243675,469.27039324386806,1 45773U 20038AV  26099.87835846  .00051749  00000+0  15983-2 0  9997,2 45773  53.1605  45.9030 0003757 111.8901 248.2501 15.33056679321623
STARLINK-1496,45780,53.0499,3.05e-05,15.53949154,405.0021382357545,405.4159223436027,1 45780U 20038BC  26099.51068054  .00095762  00000+0  14476-2 0  9994,2 45780  53.0499  29.7436 0000305 178.4913 181.6097 15.53949154321798
STARLINK-1513,45786,53.1613,0.0001702,15.3018909,474.08119883976633,476.41409097289215,1 45786U 20038BJ  26099.58439195  .00000025  00000+0  12976-4 0  9998,2 45786  53.1613  47.6483 0001702  89.3587 270.7609 15.30189090321578
STARLINK-1522,46027,53.0651,0.000243,15.10713534,532.3430093816332,535.702318978425,1 46027U 20055A   26099.86038752  .00021142  00000+0  12753-2 0  9995,2 46027  53.0651 345.8427 0002430 142.7745 217.3415 15.10713534313597
STARLINK-1523,46028,53.1611,0.0001277,15.30198612,474.3440401517728,476.0943873287615,1 46028U 20055B   26099.87335226  .00001025  00000+0  46739-4 0  9994,2 46028  53.1611 341.8590 0001277  84.6578 275.4569 15.30198612313678
STARLINK-1526,46029,53.1619,0.0001531,15.30184409,474.2123664013043,476.3108770592771,1 46029U 20055C   26099.86703798 -.00001808  00000+0 -48936-4 0  9999,2 46029  53.1619 341.8966 0001531  99.4988 260.6186 15.30184409313665
STARLINK-1555,46032,53.1605,0.000117,15.30171472,474.498398050222,476.10210236676994,1 46032U 20055F   26099.85125369 -.00003359  00000+0 -10141-3 0  9993,2 46032  53.1605 341.9573 0001170  86.4099 273.7036 15.30171472313662
STARLINK-1556,46033,53.1561,0.0001287,15.29353809,476.8604563759036,478.6251598385106,1 46033U 20055G   26099.96277361 -.00000431  00000+0 -25960-5 0  9991,2 46033  53.1561 341.4315 0001287  91.3486 268.7662 15.29353809313659
STARLINK-1557,46034,53.1569,0.0001327,15.29354066,476.8322648952653,478.651815192492,1 46034U 20055H   26099.95653115 -.00000838  00000+0 -16699-4 0  9995,2 46034  53.1569 341.3600 0001327  94.7563 265.3589 15.29354066313659
STARLINK-1558,46035,53.1599,0.0001052,15.30201915,474.488379544282,475.9303236166543,1 46035U 20055J   26099.84488538  .00002145  00000+0  84514-4 0  9991,2 46035  53.1599 341.9946 0001052  96.5458 263.5663 15.30201915313660
STARLINK-1560,46036,53.1565,0.0001075,15.29357952,476.99342072606214,478.4674322227538,1 46036U 20055K   26099.95330311  .00000542  00000+0  31113-4 0  9995,2 46036  53.1565 341.4148 0001075  85.7990 274.3133 15.29357952313684
STARLINK-1567,46038,53.0873,5.22e-05,15.77591915,336.91514217271015,337.6162302131488,1 46038U 20055M   26099.90162723  .01393749  00000+0  72727-2 0  9991,2 46038  53.0873 337.1565 0000522 165.1161 194.9875 15.77591915313728
STARLINK-1569,46039,53.1608,0.0001094,15.30222911,474.396912923944,475.89641138922343,1 46039U 20055N   26099.84804684  .00005579  00000+0  20020-3 0  9994,2 46039  53.1608 341.9757 0001094 107.9226 252.1894 15.30222911313659
STARLINK-1582,46043,53.1609,0.0001308,15.3019434,474.3355485500206,476.1283898723659,1 46043U 20055S   26099.85439621  .00001734  00000+0  70680-4 0  9992,2 46043  53.1609 341.9403 0001308  77.7982 282.3165 15.30194340313654
STARLINK-1591,46045,53.162,0.000124,15.30204498,474.3518252437261,476.05145322625685,1 46045U 20055U   26099.88073085 -.00002477  00000+0 -71505-4 0  9999,2 46045  53.1620 341.8277 0001240  87.1654 272.9489 15.30204498313642
STARLINK-1524,46047,53.16,0.000116,15.30183819,474.4683889499511,476.0583778388982,1 46047U 20055W   26099.87489902 -.00001154  00000+0 -26847-4 0  9999,2 46047  53.1600 328.9879 0001160  89.7680 270.3453 15.30183819313842
STARLINK-1527,46048,53.1614,0.0001301,15.30176979,474.3921767905549,476.17543688449496,1 46048U 20055X   26099.88124596  .00002329  00000+0  90783-4 0  9999,2 46048  53.1614 329.0586 0001301  89.5743 270.5407 15.30176979313828
